{"type": "FeatureCollection", "features": [ {"type": "Feature", "properties": {"norad_id": 66965, "name": "STARLINK-36067", "group": "last-30-days", "lat": 41.413977235578216, "lon": -165.80187823536468, "alt_km": 316.37720090378116, "timestamp": "2025-12-19T22:41:51.098860+00:00", "meta": {"OBJECT_NAME": "STARLINK-36067", "OBJECT_ID": "2025-288G", "EPOCH": "2025-12-19T17:50:08.356128", "MEAN_MOTION": 15.8317375, "ECCENTRICITY": 0.0002177, "INCLINATION": 43.0006, "RA_OF_ASC_NODE": 124.2578, "ARG_OF_PERICENTER": 299.0175, "MEAN_ANOMALY": 61.0479, "EPHEMERIS_TYPE": 0, "CLASSIFICATION_TYPE": "U", "NORAD_CAT_ID": 66965, "ELEMENT_SET_NO": 999, "REV_AT_EPOCH": 295, "BSTAR": -0.001903, "MEAN_MOTION_DOT": -0.00404706, "MEAN_MOTION_DDOT": 0}, "tle": {"line1": "1 66965U 25288G   25353.74315227 -.00404706  00000+0 -19030-2 0  9993", "line2": "2 66965  43.0006 124.2578 0002177 299.0175  61.0479 15.83173750  2959"}}, "geometry": {"type": "Point", "coordinates": [-165.80187823536468, 41.413977235578216]}}, {"type": "Feature", "properties": {"norad_id": 66966, "name": "STARLINK-36139", "group": "last-30-days", "lat": 41.99219812153814, "lon": -161.98228716128818, "alt_km": 315.38442853413017, "timestamp": "2025-12-19T22:41:51.098872+00:00", "meta": {"OBJECT_NAME": "STARLINK-36139", "OBJECT_ID": "2025-288H", "EPOCH": "2025-12-19T17:49:27.560640", "MEAN_MOTION": 15.83410061, "ECCENTRICITY": 0.0001959, "INCLINATION": 43.001, "RA_OF_ASC_NODE": 124.2538, "ARG_OF_PERICENTER": 280.9041, "MEAN_ANOMALY": 79.1611, "EPHEMERIS_TYPE": 0, "CLASSIFICATION_TYPE": "U", "NORAD_CAT_ID": 66966, "ELEMENT_SET_NO": 999, "REV_AT_EPOCH": 295, "BSTAR": -0.0002939, "MEAN_MOTION_DOT": -0.00066137, "MEAN_MOTION_DDOT": 0}, "tle": {"line1": "1 66966U 25288H   25353.74268010 -.00066137  00000+0 -29390-3 0  9994", "line2": "2 66966  43.0010 124.2538 0001959 280.9041  79.1611 15.83410061  2956"}}, "geometry": {"type": "Point", "coordinates": [-161.98228716128818, 41.99219812153814]}}, {"type": "Feature", "properties": {"norad_id": 66967, "name": "STARLINK-36136", "group": "last-30-days", "lat": 42.368003931246996, "lon": -158.82353677569083, "alt_km": 315.95530421800595, "timestamp": "2025-12-19T22:41:51.098883+00:00", "meta": {"OBJECT_NAME": "STARLINK-36136", "OBJECT_ID": "2025-288J", "EPOCH": "2025-12-19T14:47:13.778880", "MEAN_MOTION": 15.83626352, "ECCENTRICITY": 0.0002914, "INCLINATION": 43.0013, "RA_OF_ASC_NODE": 125.0249, "ARG_OF_PERICENTER": 249.6494, "MEAN_ANOMALY": 110.4066, "EPHEMERIS_TYPE": 0, "CLASSIFICATION_TYPE": "U", "NORAD_CAT_ID": 66967, "ELEMENT_SET_NO": 999, "REV_AT_EPOCH": 293, "BSTAR": -0.0013646, "MEAN_MOTION_DOT": -0.00300264, "MEAN_MOTION_DDOT": 0}, "tle": {"line1": "1 66967U 25288J   25353.61613170 -.00300264  00000+0 -13646-2 0  9990", "line2": "2 66967  43.0013 125.0249 0002914 249.6494 110.4066 15.83626352  2937"}}, "geometry": {"type": "Point", "coordinates": [-158.82353677569083, 42.368003931246996]}}, {"type": "Feature", "properties": {"norad_id": 66968, "name": "STARLINK-36152", "group": "last-30-days", "lat": 42.61215529876686, "lon": -156.18214990883615, "alt_km": 316.62677261350836, "timestamp": "2025-12-19T22:41:51.098893+00:00", "meta": {"OBJECT_NAME": "STARLINK-36152", "OBJECT_ID": "2025-288K", "EPOCH": "2025-12-19T17:48:17.883360", "MEAN_MOTION": 15.83117105, "ECCENTRICITY": 0.0002296, "INCLINATION": 43.0011, "RA_OF_ASC_NODE": 124.2463, "ARG_OF_PERICENTER": 294.3972, "MEAN_ANOMALY": 65.666, "EPHEMERIS_TYPE": 0, "CLASSIFICATION_TYPE": "U", "NORAD_CAT_ID": 66968, "ELEMENT_SET_NO": 999, "REV_AT_EPOCH": 295, "BSTAR": -0.0019503, "MEAN_MOTION_DOT": -0.00413243, "MEAN_MOTION_DDOT": 0}, "tle": {"line1": "1 66968U 25288K   25353.74187365 -.00413243  00000+0 -19503-2 0  9997", "line2": "2 66968  43.0011 124.2463 0002296 294.3972  65.6660 15.83117105  2950"}}, "geometry": {"type": "Point", "coordinates": [-156.18214990883615, 42.61215529876686]}}, {"type": "Feature", "properties": {"norad_id": 66969, "name": "STARLINK-36149", "group": "last-30-days", "lat": 42.70734779761656, "lon": -139.12894600879122, "alt_km": 314.0307133265751, "timestamp": "2025-12-19T22:41:51.098905+00:00", "meta": {"OBJECT_NAME": "STARLINK-36149", "OBJECT_ID": "2025-288L", "EPOCH": "2025-12-19T16:14:26.539584", "MEAN_MOTION": 15.8367777, "ECCENTRICITY": 0.0002038, "INCLINATION": 43.0013, "RA_OF_ASC_NODE": 124.6172, "ARG_OF_PERICENTER": 225.9465, "MEAN_ANOMALY": 134.1239, "EPHEMERIS_TYPE": 0, "CLASSIFICATION_TYPE": "U", "NORAD_CAT_ID": 66969, "ELEMENT_SET_NO": 999, "REV_AT_EPOCH": 294, "BSTAR": 0.000358, "MEAN_MOTION_DOT": 0.00081756, "MEAN_MOTION_DDOT": 0}, "tle": {"line1": "1 66969U 25288L   25353.67669606  .00081756  00000+0  35800-3 0  9990", "line2": "2 66969  43.0013 124.6172 0002038 225.9465 134.1239 15.83677770  2947"}}, "geometry": {"type": "Point", "coordinates": [-139.12894600879122, 42.70734779761656]}}, {"type": "Feature", "properties": {"norad_id": 66970, "name": "STARLINK-35703", "group": "last-30-days", "lat": 41.220010006018555, "lon": -127.13032858428798, "alt_km": 315.2719991861786, "timestamp": "2025-12-19T22:41:51.098915+00:00", "meta": {"OBJECT_NAME": "STARLINK-35703", "OBJECT_ID": "2025-288M", "EPOCH": "2025-12-19T16:12:06.913728", "MEAN_MOTION": 15.8352226, "ECCENTRICITY": 0.0001878, "INCLINATION": 43.0009, "RA_OF_ASC_NODE": 124.603, "ARG_OF_PERICENTER": 275.4876, "MEAN_ANOMALY": 84.5782, "EPHEMERIS_TYPE": 0, "CLASSIFICATION_TYPE": "U", "NORAD_CAT_ID": 66970, "ELEMENT_SET_NO": 999, "REV_AT_EPOCH": 294, "BSTAR": -0.00033389, "MEAN_MOTION_DOT": -0.00075382, "MEAN_MOTION_DDOT": 0}, "tle": {"line1": "1 66970U 25288M   25353.67508002 -.00075382  00000+0 -33389-3 0  9994", "line2": "2 66970  43.0009 124.6030 0001878 275.4876  84.5782 15.83522260  2948"}}, "geometry": {"type": "Point", "coordinates": [-127.13032858428798, 41.220010006018555]}}, {"type": "Feature", "properties": {"norad_id": 66971, "name": "STARLINK-35678", "group": "last-30-days", "lat": 42.81074523903962, "lon": -153.25255105865068, "alt_km": 316.1705906239695, "timestamp": "2025-12-19T22:41:51.098925+00:00", "meta": {"OBJECT_NAME": "STARLINK-35678", "OBJECT_ID": "2025-288N", "EPOCH": "2025-12-19T14:46:07.822848", "MEAN_MOTION": 15.83510193, "ECCENTRICITY": 0.0002123, "INCLINATION": 43.0016, "RA_OF_ASC_NODE": 125.018, "ARG_OF_PERICENTER": 252.044, "MEAN_ANOMALY": 108.0201, "EPHEMERIS_TYPE": 0, "CLASSIFICATION_TYPE": "U", "NORAD_CAT_ID": 66971, "ELEMENT_SET_NO": 999, "REV_AT_EPOCH": 293, "BSTAR": -0.0025108, "MEAN_MOTION_DOT": -0.00534508, "MEAN_MOTION_DDOT": 0}, "tle": {"line1": "1 66971U 25288N   25353.61536832 -.00534508  00000+0 -25108-2 0  9990", "line2": "2 66971  43.0016 125.0180 0002123 252.0440 108.0201 15.83510193  2939"}}, "geometry": {"type": "Point", "coordinates": [-153.25255105865068, 42.81074523903962]}}, {"type": "Feature", "properties": {"norad_id": 66972, "name": "STARLINK-34846", "group": "last-30-days", "lat": 42.95532319208883, "lon": -149.4258866787264, "alt_km": 314.90800880444203, "timestamp": "2025-12-19T22:41:51.098935+00:00", "meta": {"OBJECT_NAME": "STARLINK-34846", "OBJECT_ID": "2025-288P", "EPOCH": "2025-12-19T17:47:08.193984", "MEAN_MOTION": 15.83519621, "ECCENTRICITY": 0.000217, "INCLINATION": 43.0016, "RA_OF_ASC_NODE": 124.2401, "ARG_OF_PERICENTER": 288.4953, "MEAN_ANOMALY": 71.5683, "EPHEMERIS_TYPE": 0, "CLASSIFICATION_TYPE": "U", "NORAD_CAT_ID": 66972, "ELEMENT_SET_NO": 999, "REV_AT_EPOCH": 295, "BSTAR": 0.0003408, "MEAN_MOTION_DOT": 0.00077176, "MEAN_MOTION_DDOT": 0}, "tle": {"line1": "1 66972U 25288P   25353.74106706  .00077176  00000+0  34080-3 0  9999", "line2": "2 66972  43.0016 124.2401 0002170 288.4953  71.5683 15.83519621  2956"}}, "geometry": {"type": "Point", "coordinates": [-149.4258866787264, 42.95532319208883]}}, {"type": "Feature", "properties": {"norad_id": 66973, "name": "STARLINK-35778", "group": "last-30-days", "lat": 42.97535561173495, "lon": -145.96081678546875, "alt_km": 314.69783691317025, "timestamp": "2025-12-19T22:41:51.098947+00:00", "meta": {"OBJECT_NAME": "STARLINK-35778", "OBJECT_ID": "2025-288Q", "EPOCH": "2025-12-19T16:15:41.192640", "MEAN_MOTION": 15.83603582, "ECCENTRICITY": 0.0001879, "INCLINATION": 43.0013, "RA_OF_ASC_NODE": 124.6242, "ARG_OF_PERICENTER": 279.2381, "MEAN_ANOMALY": 80.8279, "EPHEMERIS_TYPE": 0, "CLASSIFICATION_TYPE": "U", "NORAD_CAT_ID": 66973, "ELEMENT_SET_NO": 999, "REV_AT_EPOCH": 294, "BSTAR": -0.00014959, "MEAN_MOTION_DOT": -0.00034364, "MEAN_MOTION_DDOT": 0}, "tle": {"line1": "1 66973U 25288Q   25353.67756010 -.00034364  00000+0 -14959-3 0  9998", "line2": "2 66973  43.0013 124.6242 0001879 279.2381  80.8279 15.83603582  2942"}}, "geometry": {"type": "Point", "coordinates": [-145.96081678546875, 42.97535561173495]}}, {"type": "Feature", "properties": {"norad_id": 66974, "name": "STARLINK-35780", "group": "last-30-days", "lat": 42.92261315866926, "lon": -143.3769212254735, "alt_km": 317.00377324177225, "timestamp": "2025-12-19T22:41:51.098957+00:00", "meta": {"OBJECT_NAME": "STARLINK-35780", "OBJECT_ID": "2025-288R", "EPOCH": "2025-12-19T14:44:17.541888", "MEAN_MOTION": 15.8345028, "ECCENTRICITY": 0.0004312, "INCLINATION": 43.0017, "RA_OF_ASC_NODE": 125.0086, "ARG_OF_PERICENTER": 314.1544, "MEAN_ANOMALY": 45.8973, "EPHEMERIS_TYPE": 0, "CLASSIFICATION_TYPE": "U", "NORAD_CAT_ID": 66974, "ELEMENT_SET_NO": 999, "REV_AT_EPOCH": 293, "BSTAR": -0.0025482, "MEAN_MOTION_DOT": -0.00541042, "MEAN_MOTION_DDOT": 0}, "tle": {"line1": "1 66974U 25288R   25353.61409192 -.00541042  00000+0 -25482-2 0  9997", "line2": "2 66974  43.0017 125.0086 0004312 314.1544  45.8973 15.83450280  2939"}}, "geometry": {"type": "Point", "coordinates": [-143.3769212254735, 42.92261315866926]}}]}